{
  "type": "FeatureCollection",
  "features": [
    {
      "type": "Feature",
      "properties": {
        "OBJECT_NAME": "FENGYUN 1C DEB",
        "OBJECT_ID": "1999-025QA",
        "EPOCH": "2025-11-28T21:39:22.889664",
        "MEAN_MOTION": 14.18522008,
        "ECCENTRICITY": 0.00546851,
        "INCLINATION": 99.411,
        "RA_OF_ASC_NODE": 305.1954,
        "ARG_OF_PERICENTER": 319.5009,
        "MEAN_ANOMALY": 66.6851,
        "EPHEMERIS_TYPE": 0,
        "CLASSIFICATION_TYPE": "U",
        "NORAD_CAT_ID": 30073,
        "ELEMENT_SET_NO": 999,
        "REV_AT_EPOCH": 96729,
        "BSTAR": 0.0017422675,
        "MEAN_MOTION_DOT": 3.609e-05,
        "MEAN_MOTION_DDOT": 0,
        "norad_id": 30073,
        "name": "FENGYUN 1C DEB",
        "group": "fengyun-1c-debris",
        "longitude_deg": NaN,
        "latitude_deg": NaN,
        "alt_km": NaN,
        "orbit_class": "HEO",
        "timestamp": "2025-11-30T08:43:09.392028+00:00"
      },
      "geometry": {
        "type": "Point",
        "coordinates": [
          NaN,
          NaN
        ]
      }
    },
    {
      "type": "Feature",
      "properties": {
        "OBJECT_NAME": "FENGYUN 1C DEB",
        "OBJECT_ID": "1999-025QB",
        "EPOCH": "2025-11-26T14:55:55.014528",
        "MEAN_MOTION": 14.12720452,
        "ECCENTRICITY": 0.0097507,
        "INCLINATION": 99.1303,
        "RA_OF_ASC_NODE": 36.5478,
        "ARG_OF_PERICENTER": 196.4584,
        "MEAN_ANOMALY": 163.3415,
        "EPHEMERIS_TYPE": 0,
        "CLASSIFICATION_TYPE": "U",
        "NORAD_CAT_ID": 30074,
        "ELEMENT_SET_NO": 999,
        "REV_AT_EPOCH": 96434,
        "BSTAR": 0.0019506438,
        "MEAN_MOTION_DOT": 3.741e-05,
        "MEAN_MOTION_DDOT": 0,
        "norad_id": 30074,
        "name": "FENGYUN 1C DEB",
        "group": "fengyun-1c-debris",
        "longitude_deg": NaN,
        "latitude_deg": NaN,
        "alt_km": NaN,
        "orbit_class": "HEO",
        "timestamp": "2025-11-30T08:43:09.392040+00:00"
      },
      "geometry": {
        "type": "Point",
        "coordinates": [
          NaN,
          NaN
        ]
      }
    },
    {
      "type": "Feature",
      "properties": {
        "OBJECT_NAME": "FENGYUN 1C DEB",
        "OBJECT_ID": "1999-025QC",
        "EPOCH": "2025-11-30T02:47:55.242240",
        "MEAN_MOTION": 13.92526086,
        "ECCENTRICITY": 0.0090573,
        "INCLINATION": 99.3636,
        "RA_OF_ASC_NODE": 24.2988,
        "ARG_OF_PERICENTER": 211.1167,
        "MEAN_ANOMALY": 205.3288,
        "EPHEMERIS_TYPE": 0,
        "CLASSIFICATION_TYPE": "U",
        "NORAD_CAT_ID": 30075,
        "ELEMENT_SET_NO": 999,
        "REV_AT_EPOCH": 95889,
        "BSTAR": 5.915e-05,
        "MEAN_MOTION_DOT": 3.3e-07,
        "MEAN_MOTION_DDOT": 0,
        "norad_id": 30075,
        "name": "FENGYUN 1C DEB",
        "group": "fengyun-1c-debris",
        "longitude_deg": NaN,
        "latitude_deg": NaN,
        "alt_km": NaN,
        "orbit_class": "HEO",
        "timestamp": "2025-11-30T08:43:09.392046+00:00"
      },
      "geometry": {
        "type": "Point",
        "coordinates": [
          NaN,
          NaN
        ]
      }
    },
    {
      "type": "Feature",
      "properties": {
        "OBJECT_NAME": "FENGYUN 1C DEB",
        "OBJECT_ID": "1999-025QD",
        "EPOCH": "2025-11-29T22:57:46.705248",
        "MEAN_MOTION": 13.76279271,
        "ECCENTRICITY": 0.0175504,
        "INCLINATION": 99.2374,
        "RA_OF_ASC_NODE": 321.06,
        "ARG_OF_PERICENTER": 127.4608,
        "MEAN_ANOMALY": 290.8239,
        "EPHEMERIS_TYPE": 0,
        "CLASSIFICATION_TYPE": "U",
        "NORAD_CAT_ID": 30076,
        "ELEMENT_SET_NO": 999,
        "REV_AT_EPOCH": 94718,
        "BSTAR": 0.00031033,
        "MEAN_MOTION_DOT": 2.97e-06,
        "MEAN_MOTION_DDOT": 0,
        "norad_id": 30076,
        "name": "FENGYUN 1C DEB",
        "group": "fengyun-1c-debris",
        "longitude_deg": NaN,
        "latitude_deg": NaN,
        "alt_km": NaN,
        "orbit_class": "HEO",
        "timestamp": "2025-11-30T08:43:09.392055+00:00"
      },
      "geometry": {
        "type": "Point",
        "coordinates": [
          NaN,
          NaN
        ]
      }
    },
    {
      "type": "Feature",
      "properties": {
        "OBJECT_NAME": "FENGYUN 1C DEB",
        "OBJECT_ID": "1999-025QE",
        "EPOCH": "2025-11-30T00:53:36.838752",
        "MEAN_MOTION": 14.07077,
        "ECCENTRICITY": 0.0020524,
        "INCLINATION": 98.7591,
        "RA_OF_ASC_NODE": 350.0908,
        "ARG_OF_PERICENTER": 301.7753,
        "MEAN_ANOMALY": 112.8637,
        "EPHEMERIS_TYPE": 0,
        "CLASSIFICATION_TYPE": "U",
        "NORAD_CAT_ID": 30077,
        "ELEMENT_SET_NO": 999,
        "REV_AT_EPOCH": 96934,
        "BSTAR": 3.2386e-06,
        "MEAN_MOTION_DOT": -3.7e-07,
        "MEAN_MOTION_DDOT": 0,
        "norad_id": 30077,
        "name": "FENGYUN 1C DEB",
        "group": "fengyun-1c-debris",
        "longitude_deg": NaN,
        "latitude_deg": NaN,
        "alt_km": NaN,
        "orbit_class": "HEO",
        "timestamp": "2025-11-30T08:43:09.392061+00:00"
      },
      "geometry": {
        "type": "Point",
        "coordinates": [
          NaN,
          NaN
        ]
      }
    },
    {
      "type": "Feature",
      "properties": {
        "OBJECT_NAME": "FENGYUN 1C DEB",
        "OBJECT_ID": "1999-025QF",
        "EPOCH": "2025-11-30T03:10:10.117920",
        "MEAN_MOTION": 14.23021841,
        "ECCENTRICITY": 0.0052449,
        "INCLINATION": 98.8333,
        "RA_OF_ASC_NODE": 48.9598,
        "ARG_OF_PERICENTER": 317.3814,
        "MEAN_ANOMALY": 101.5343,
        "EPHEMERIS_TYPE": 0,
        "CLASSIFICATION_TYPE": "U",
        "NORAD_CAT_ID": 30078,
        "ELEMENT_SET_NO": 999,
        "REV_AT_EPOCH": 96934,
        "BSTAR": 0.0014948,
        "MEAN_MOTION_DOT": 3.372e-05,
        "MEAN_MOTION_DDOT": 0,
        "norad_id": 30078,
        "name": "FENGYUN 1C DEB",
        "group": "fengyun-1c-debris",
        "longitude_deg": NaN,
        "latitude_deg": NaN,
        "alt_km": NaN,
        "orbit_class": "HEO",
        "timestamp": "2025-11-30T08:43:09.392067+00:00"
      },
      "geometry": {
        "type": "Point",
        "coordinates": [
          NaN,
          NaN
        ]
      }
    },
    {
      "type": "Feature",
      "properties": {
        "OBJECT_NAME": "FENGYUN 1C DEB",
        "OBJECT_ID": "1999-025QG",
        "EPOCH": "2025-11-30T02:53:51.527328",
        "MEAN_MOTION": 14.0078211,
        "ECCENTRICITY": 0.0084829,
        "INCLINATION": 99.0381,
        "RA_OF_ASC_NODE": 29.7958,
        "ARG_OF_PERICENTER": 334.5691,
        "MEAN_ANOMALY": 53.8119,
        "EPHEMERIS_TYPE": 0,
        "CLASSIFICATION_TYPE": "U",
        "NORAD_CAT_ID": 30079,
        "ELEMENT_SET_NO": 999,
        "REV_AT_EPOCH": 96361,
        "BSTAR": 0.0001743,
        "MEAN_MOTION_DOT": 2.24e-06,
        "MEAN_MOTION_DDOT": 0,
        "norad_id": 30079,
        "name": "FENGYUN 1C DEB",
        "group": "fengyun-1c-debris",
        "longitude_deg": NaN,
        "latitude_deg": NaN,
        "alt_km": NaN,
        "orbit_class": "HEO",
        "timestamp": "2025-11-30T08:43:09.392073+00:00"
      },
      "geometry": {
        "type": "Point",
        "coordinates": [
          NaN,
          NaN
        ]
      }
    },
    {
      "type": "Feature",
      "properties": {
        "OBJECT_NAME": "FENGYUN 1C DEB",
        "OBJECT_ID": "1999-025QH",
        "EPOCH": "2025-11-29T22:03:20.081088",
        "MEAN_MOTION": 14.10799256,
        "ECCENTRICITY": 0.0133935,
        "INCLINATION": 98.6972,
        "RA_OF_ASC_NODE": 314.8466,
        "ARG_OF_PERICENTER": 96.732,
        "MEAN_ANOMALY": 318.4773,
        "EPHEMERIS_TYPE": 0,
        "CLASSIFICATION_TYPE": "U",
        "NORAD_CAT_ID": 30080,
        "ELEMENT_SET_NO": 999,
        "REV_AT_EPOCH": 97057,
        "BSTAR": 0.00029418,
        "MEAN_MOTION_DOT": 5.31e-06,
        "MEAN_MOTION_DDOT": 0,
        "norad_id": 30080,
        "name": "FENGYUN 1C DEB",
        "group": "fengyun-1c-debris",
        "longitude_deg": NaN,
        "latitude_deg": NaN,
        "alt_km": NaN,
        "orbit_class": "HEO",
        "timestamp": "2025-11-30T08:43:09.392082+00:00"
      },
      "geometry": {
        "type": "Point",
        "coordinates": [
          NaN,
          NaN
        ]
      }
    },
    {
      "type": "Feature",
      "properties": {
        "OBJECT_NAME": "FENGYUN 1C DEB",
        "OBJECT_ID": "1999-025QJ",
        "EPOCH": "2025-11-29T21:49:51.422016",
        "MEAN_MOTION": 13.98253619,
        "ECCENTRICITY": 0.0076302,
        "INCLINATION": 98.9226,
        "RA_OF_ASC_NODE": 330.5353,
        "ARG_OF_PERICENTER": 14.4123,
        "MEAN_ANOMALY": 47.9261,
        "EPHEMERIS_TYPE": 0,
        "CLASSIFICATION_TYPE": "U",
        "NORAD_CAT_ID": 30081,
        "ELEMENT_SET_NO": 999,
        "REV_AT_EPOCH": 96175,
        "BSTAR": 0.0003364,
        "MEAN_MOTION_DOT": 4.49e-06,
        "MEAN_MOTION_DDOT": 0,
        "norad_id": 30081,
        "name": "FENGYUN 1C DEB",
        "group": "fengyun-1c-debris",
        "longitude_deg": NaN,
        "latitude_deg": NaN,
        "alt_km": NaN,
        "orbit_class": "HEO",
        "timestamp": "2025-11-30T08:43:09.392088+00:00"
      },
      "geometry": {
        "type": "Point",
        "coordinates": [
          NaN,
          NaN
        ]
      }
    }
  ]
}